{"type": "FeatureCollection", "features": [ {"type": "Feature", "properties": {"norad_id": 32088, "name": "FENGYUN 1C DEB", "group": "fengyun-1c-debris", "lat": 10.676915879233583, "lon": 39.18844367397683, "alt_km": 1514.2627982839504, "timestamp": "2025-12-16T03:53:27.341401+00:00", "meta": {"OBJECT_NAME": "FENGYUN 1C DEB", "OBJECT_ID": "1999-025CQE", "EPOCH": "2025-12-14T09:21:56.325600", "MEAN_MOTION": 13.25191272, "ECCENTRICITY": 0.04615858, "INCLINATION": 102.4008, "RA_OF_ASC_NODE": 214.6972, "ARG_OF_PERICENTER": 353.5245, "MEAN_ANOMALY": 6.0033, "EPHEMERIS_TYPE": 0, "CLASSIFICATION_TYPE": "U", "NORAD_CAT_ID": 32088, "ELEMENT_SET_NO": 999, "REV_AT_EPOCH": 59866, "BSTAR": 0.003636769, "MEAN_MOTION_DOT": 2.743e-05, "MEAN_MOTION_DDOT": 0}, "tle": {"line1": "1 32088U 99025CQE 25348.39023525  .00002743  00000+0  36368-2 0  9990", "line2": "2 32088 102.4008 214.6972 0461585 353.5245   6.0033 13.25191272598664"}}, "geometry": {"type": "Point", "coordinates": [39.18844367397683, 10.676915879233583]}}, {"type": "Feature", "properties": {"norad_id": 32089, "name": "FENGYUN 1C DEB", "group": "fengyun-1c-debris", "lat": -78.43991964667049, "lon": 43.75665082552535, "alt_km": 930.5220512307951, "timestamp": "2025-12-16T03:53:27.341412+00:00", "meta": {"OBJECT_NAME": "FENGYUN 1C DEB", "OBJECT_ID": "1999-025CQF", "EPOCH": "2025-12-12T06:53:11.826816", "MEAN_MOTION": 14.14067059, "ECCENTRICITY": 0.01123779, "INCLINATION": 98.6547, "RA_OF_ASC_NODE": 351.8762, "ARG_OF_PERICENTER": 125.2996, "MEAN_ANOMALY": 235.875, "EPHEMERIS_TYPE": 0, "CLASSIFICATION_TYPE": "U", "NORAD_CAT_ID": 32089, "ELEMENT_SET_NO": 999, "REV_AT_EPOCH": 63209, "BSTAR": 0.00077843034, "MEAN_MOTION_DOT": 1.532e-05, "MEAN_MOTION_DDOT": 0}, "tle": {"line1": "1 32089U 99025CQF 25346.28694244  .00001532  00000+0  77843-3 0  9998", "line2": "2 32089  98.6547 351.8762 0112377 125.2996 235.8750 14.14067059632097"}}, "geometry": {"type": "Point", "coordinates": [43.75665082552535, -78.43991964667049]}}, {"type": "Feature", "properties": {"norad_id": 32093, "name": "FENGYUN 1C DEB", "group": "fengyun-1c-debris", "lat": 71.1170407492981, "lon": 50.45535079862216, "alt_km": 790.2224621331252, "timestamp": "2025-12-16T03:53:27.341422+00:00", "meta": {"OBJECT_NAME": "FENGYUN 1C DEB", "OBJECT_ID": "1999-025CQK", "EPOCH": "2025-12-12T00:50:48.937632", "MEAN_MOTION": 14.37603697, "ECCENTRICITY": 0.00794334, "INCLINATION": 98.9197, "RA_OF_ASC_NODE": 198.8432, "ARG_OF_PERICENTER": 355.6405, "MEAN_ANOMALY": 4.4079, "EPHEMERIS_TYPE": 0, "CLASSIFICATION_TYPE": "U", "NORAD_CAT_ID": 32093, "ELEMENT_SET_NO": 999, "REV_AT_EPOCH": 96507, "BSTAR": 0.00063485421, "MEAN_MOTION_DOT": 1.927e-05, "MEAN_MOTION_DDOT": 0}, "tle": {"line1": "1 32093U 99025CQK 25346.03528863  .00001927  00000+0  63485-3 0  9994", "line2": "2 32093  98.9197 198.8432 0079433 355.6405   4.4079 14.37603697965078"}}, "geometry": {"type": "Point", "coordinates": [50.45535079862216, 71.1170407492981]}}, {"type": "Feature", "properties": {"norad_id": 32094, "name": "FENGYUN 1C DEB", "group": "fengyun-1c-debris", "lat": -75.26275524360071, "lon": 16.29589407144093, "alt_km": 841.4500114043785, "timestamp": "2025-12-16T03:53:27.341433+00:00", "meta": {"OBJECT_NAME": "FENGYUN 1C DEB", "OBJECT_ID": "1999-025CQL", "EPOCH": "2025-12-11T22:07:39.581760", "MEAN_MOTION": 14.10725237, "ECCENTRICITY": 0.0034065, "INCLINATION": 98.7447, "RA_OF_ASC_NODE": 336.3568, "ARG_OF_PERICENTER": 270.97, "MEAN_ANOMALY": 88.7568, "EPHEMERIS_TYPE": 0, "CLASSIFICATION_TYPE": "U", "NORAD_CAT_ID": 32094, "ELEMENT_SET_NO": 999, "REV_AT_EPOCH": 94353, "BSTAR": 0.00058116, "MEAN_MOTION_DOT": 1.001e-05, "MEAN_MOTION_DDOT": 0}, "tle": {"line1": "1 32094U 99025CQL 25345.92198590  .00001001  00000+0  58116-3 0  9990", "line2": "2 32094  98.7447 336.3568 0034065 270.9700  88.7568 14.10725237943534"}}, "geometry": {"type": "Point", "coordinates": [16.29589407144093, -75.26275524360071]}}, {"type": "Feature", "properties": {"norad_id": 32095, "name": "FENGYUN 1C DEB", "group": "fengyun-1c-debris", "lat": 19.60245424912097, "lon": -171.22095779152858, "alt_km": 826.1486425469384, "timestamp": "2025-12-16T03:53:27.341443+00:00", "meta": {"OBJECT_NAME": "FENGYUN 1C DEB", "OBJECT_ID": "1999-025CQM", "EPOCH": "2025-12-14T20:37:16.392864", "MEAN_MOTION": 14.16041913, "ECCENTRICITY": 0.00791327, "INCLINATION": 98.641, "RA_OF_ASC_NODE": 4.4107, "ARG_OF_PERICENTER": 86.1686, "MEAN_ANOMALY": 274.8532, "EPHEMERIS_TYPE": 0, "CLASSIFICATION_TYPE": "U", "NORAD_CAT_ID": 32095, "ELEMENT_SET_NO": 999, "REV_AT_EPOCH": 94847, "BSTAR": 0.00029617549, "MEAN_MOTION_DOT": 5.61e-06, "MEAN_MOTION_DDOT": 0}, "tle": {"line1": "1 32095U 99025CQM 25348.85921751  .00000561  00000+0  29618-3 0  9994", "line2": "2 32095  98.6410   4.4107 0079132  86.1686 274.8532 14.16041913948475"}}, "geometry": {"type": "Point", "coordinates": [-171.22095779152858, 19.60245424912097]}}, {"type": "Feature", "properties": {"norad_id": 32096, "name": "FENGYUN 1C DEB", "group": "fengyun-1c-debris", "lat": -9.052624987850033, "lon": 20.531373815490237, "alt_km": 1006.309599264775, "timestamp": "2025-12-16T03:53:27.341454+00:00", "meta": {"OBJECT_NAME": "FENGYUN 1C DEB", "OBJECT_ID": "1999-025CQN", "EPOCH": "2025-12-11T13:23:11.364288", "MEAN_MOTION": 13.90183528, "ECCENTRICITY": 0.01345891, "INCLINATION": 99.0751, "RA_OF_ASC_NODE": 14.5789, "ARG_OF_PERICENTER": 143.12, "MEAN_ANOMALY": 217.9308, "EPHEMERIS_TYPE": 0, "CLASSIFICATION_TYPE": "U", "NORAD_CAT_ID": 32096, "ELEMENT_SET_NO": 999, "REV_AT_EPOCH": 92845, "BSTAR": 0.0016952038, "MEAN_MOTION_DOT": 2.214e-05, "MEAN_MOTION_DDOT": 0}, "tle": {"line1": "1 32096U 99025CQN 25345.55777042  .00002214  00000+0  16952-2 0  9994", "line2": "2 32096  99.0751  14.5789 0134589 143.1200 217.9308 13.90183528928456"}}, "geometry": {"type": "Point", "coordinates": [20.531373815490237, -9.052624987850033]}}, {"type": "Feature", "properties": {"norad_id": 32098, "name": "FENGYUN 1C DEB", "group": "fengyun-1c-debris", "lat": 39.13139932864289, "lon": -24.564708756002286, "alt_km": 771.1686033532951, "timestamp": "2025-12-16T03:53:27.341465+00:00", "meta": {"OBJECT_NAME": "FENGYUN 1C DEB", "OBJECT_ID": "1999-025CQQ", "EPOCH": "2025-12-12T16:51:19.978848", "MEAN_MOTION": 14.20256879, "ECCENTRICITY": 0.01958299, "INCLINATION": 98.6122, "RA_OF_ASC_NODE": 339.1471, "ARG_OF_PERICENTER": 119.9252, "MEAN_ANOMALY": 242.1533, "EPHEMERIS_TYPE": 0, "CLASSIFICATION_TYPE": "U", "NORAD_CAT_ID": 32098, "ELEMENT_SET_NO": 999, "REV_AT_EPOCH": 64227, "BSTAR": 0.00038968916, "MEAN_MOTION_DOT": 9.67e-06, "MEAN_MOTION_DDOT": 0}, "tle": {"line1": "1 32098U 99025CQQ 25346.70231457  .00000967  00000+0  38969-3 0  9995", "line2": "2 32098  98.6122 339.1471 0195829 119.9252 242.1533 14.20256879642278"}}, "geometry": {"type": "Point", "coordinates": [-24.564708756002286, 39.13139932864289]}}, {"type": "Feature", "properties": {"norad_id": 32099, "name": "FENGYUN 1C DEB", "group": "fengyun-1c-debris", "lat": 11.591312794073412, "lon": 143.35489871786424, "alt_km": 947.1068215076548, "timestamp": "2025-12-16T03:53:27.341475+00:00", "meta": {"OBJECT_NAME": "FENGYUN 1C DEB", "OBJECT_ID": "1999-025CQR", "EPOCH": "2025-12-13T04:24:17.454240", "MEAN_MOTION": 13.91776468, "ECCENTRICITY": 0.0342884, "INCLINATION": 98.2818, "RA_OF_ASC_NODE": 318.9761, "ARG_OF_PERICENTER": 273.816, "MEAN_ANOMALY": 102.5607, "EPHEMERIS_TYPE": 0, "CLASSIFICATION_TYPE": "U", "NORAD_CAT_ID": 32099, "ELEMENT_SET_NO": 999, "REV_AT_EPOCH": 64694, "BSTAR": 0.001759049, "MEAN_MOTION_DOT": 3.576e-05, "MEAN_MOTION_DDOT": 0}, "tle": {"line1": "1 32099U 99025CQR 25347.18353535  .00003576  00000+0  17590-2 0  9996", "line2": "2 32099  98.2818 318.9761 0342884 273.8160 102.5607 13.91776468646944"}}, "geometry": {"type": "Point", "coordinates": [143.35489871786424, 11.591312794073412]}}, {"type": "Feature", "properties": {"norad_id": 32101, "name": "FENGYUN 1C DEB", "group": "fengyun-1c-debris", "lat": 18.961429406371433, "lon": -113.9451859449186, "alt_km": 963.7826514171647, "timestamp": "2025-12-16T03:53:27.341486+00:00", "meta": {"OBJECT_NAME": "FENGYUN 1C DEB", "OBJECT_ID": "1999-025CQT", "EPOCH": "2025-12-14T12:23:39.418944", "MEAN_MOTION": 14.01662954, "ECCENTRICITY": 0.01206075, "INCLINATION": 99.0319, "RA_OF_ASC_NODE": 247.5582, "ARG_OF_PERICENTER": 233.8516, "MEAN_ANOMALY": 125.1442, "EPHEMERIS_TYPE": 0, "CLASSIFICATION_TYPE": "U", "NORAD_CAT_ID": 32101, "ELEMENT_SET_NO": 999, "REV_AT_EPOCH": 93207, "BSTAR": 0.0019686088, "MEAN_MOTION_DOT": 3.136e-05, "MEAN_MOTION_DDOT": 0}, "tle": {"line1": "1 32101U 99025CQT 25348.51642846  .00003136  00000+0  19686-2 0  9994", "line2": "2 32101  99.0319 247.5582 0120607 233.8516 125.1442 14.01662954932075"}}, "geometry": {"type": "Point", "coordinates": [-113.9451859449186, 18.961429406371433]}}, {"type": "Feature", "properties": {"norad_id": 32105, "name": "FENGYUN 1C DEB", "group": "fengyun-1c-debris", "lat": -66.31282453919563, "lon": 15.852306849029619, "alt_km": 1330.524083905152, "timestamp": "2025-12-16T03:53:27.341496+00:00", "meta": {"OBJECT_NAME": "FENGYUN 1C DEB", "OBJECT_ID": "1999-025CQX", "EPOCH": "2025-12-06T04:11:30.067584", "MEAN_MOTION": 13.40226263, "ECCENTRICITY": 0.03939271, "INCLINATION": 103.4626, "RA_OF_ASC_NODE": 329.5114, "ARG_OF_PERICENTER": 88.9087, "MEAN_ANOMALY": 275.7122, "EPHEMERIS_TYPE": 0, "CLASSIFICATION_TYPE": "U", "NORAD_CAT_ID": 32105, "ELEMENT_SET_NO": 999, "REV_AT_EPOCH": 59623, "BSTAR": 0.0040140571, "MEAN_MOTION_DOT": 3.389e-05, "MEAN_MOTION_DDOT": 0}, "tle": {"line1": "1 32105U 99025CQX 25340.17465356  .00003389  00000+0  40141-2 0  9991", "line2": "2 32105 103.4626 329.5114 0393927  88.9087 275.7122 13.40226263596233"}}, "geometry": {"type": "Point", "coordinates": [15.852306849029619, -66.31282453919563]}}]}